OBJECT_NAME,OBJECT_ID,EPOCH,MEAN_MOTION,ECCENTRICITY,INCLINATION,RA_OF_ASC_NODE,ARG_OF_PERICENTER,MEAN_ANOMALY,EPHEMERIS_TYPE,CLASSIFICATION_TYPE,NORAD_CAT_ID,ELEMENT_SET_NO,REV_AT_EPOCH,BSTAR,MEAN_MOTION_DOT,MEAN_MOTION_DDOT
SKYSAT-C4,2016-058B,2026-07-08T00:07:53.135904,15.49266076,.0003251,96.9169,209.9133,129.7385,230.4154,0,U,41771,999,54869,.19403E-3,.10513E-3,0
SKYSAT-C5,2016-058C,2026-07-06T22:14:09.710592,15.34766054,.0002457,97.0459,227.6879,176.3166,183.8097,0,U,41772,999,54677,.18242404E-3,.6073E-4,0
SKYSAT-C2,2016-058D,2026-07-06T14:15:23.124960,15.42537650,.00025596,97.0163,208.9626,24.3070,335.8299,0,U,41773,999,54804,.24349585E-3,.10488E-3,0
SKYSAT-C3,2016-058E,2026-07-08T00:29:16.824768,15.53466400,.0002102,96.9002,219.0760,134.7877,225.3549,0,U,41774,999,54934,.23412E-3,.14762E-3,0
ALSAT-1B,2016-059C,2026-07-08T04:08:49.739424,14.72289691,.0009805,97.7755,197.0309,150.3177,209.8590,0,U,41785,999,52366,-.12566E-4,-.127E-5,0
PATHFINDER 1,2016-059E,2026-07-07T22:19:39.718848,14.67687239,.0029448,97.8171,187.2708,137.9459,222.4014,0,U,41787,999,52275,.84568E-4,.438E-5,0
SCATSAT 1,2016-059H,2026-07-08T04:16:53.510304,14.79575345,.0054697,98.1180,253.1603,179.0119,181.1210,0,U,41790,999,10469,.13952E-3,.1014E-4,0
GOKTURK 1A,2016-073A,2026-07-08T04:15:14.815584,14.62791111,.0001419,98.1220,83.5200,77.8473,282.2888,0,U,41875,999,51189,.10117E-3,.469E-5,0
RESOURCESAT-2A,2016-074A,2026-07-08T04:27:08.040672,14.21607800,.0002735,98.7516,262.5180,43.4941,316.6451,0,U,41877,999,49728,.82227E-4,.136E-5,0
CARTOSAT-2D,2017-008A,2026-07-08T04:03:24.108192,15.19251785,.000532,97.4095,248.0818,160.0263,200.1181,0,U,41948,999,52076,.19415E-3,.4026E-4,0
SENTINEL-2B,2017-013A,2026-07-08T04:28:34.800960,14.30813689,.000118,98.5681,263.6644,90.3513,269.7805,0,U,42063,999,48764,.11903E-5,-.4E-6,0
CARTOSAT-2E,2017-036C,2026-07-08T04:28:47.665920,15.19219263,.0002605,97.4260,248.6419,218.8249,141.2799,0,U,42767,999,50133,.14883E-3,.3066E-4,0
FORMOSAT-5,2017-049A,2026-07-08T03:44:05.041824,14.50906476,.0011811,98.2248,263.9991,25.0173,335.1592,0,U,42920,999,46971,.32491E-4,.85E-6,0
SENTINEL-5P,2017-064A,2026-07-07T20:30:07.606080,14.19522447,.0001094,98.7928,130.8389,92.1863,267.9439,0,U,42969,999,45249,.34221E-4,.28E-6,0
SKYSAT-C11,2017-068A,2026-07-07T22:12:34.818336,15.59025050,.0000731,97.4373,338.6784,160.9387,199.1897,0,U,42987,999,48647,.21616E-3,.16726E-3,0
SKYSAT-C10,2017-068B,2026-07-07T23:01:57.966816,15.35015183,.0001312,97.4526,326.0170,109.0026,251.1360,0,U,42988,999,48554,.18084E-3,.6061E-4,0
SKYSAT-C9,2017-068C,2026-07-07T22:36:57.382848,15.42088154,.0009162,97.4445,327.1347,67.9788,292.2432,0,U,42989,999,48595,.18432E-3,.7801E-4,0
SKYSAT-C8,2017-068D,2026-07-07T21:34:47.343648,15.37391898,.0001195,97.4546,325.8355,97.2782,262.8598,0,U,42990,999,48549,.16611E-3,.6004E-4,0
SKYSAT-C7,2017-068E,2026-07-07T23:00:14.948640,15.37344161,.000637,97.4554,326.8865,44.7553,315.4204,0,U,42991,999,48556,.16604E-3,.5995E-4,0
SKYSAT-C6,2017-068F,2026-07-07T22:52:16.658976,15.34083204,.000527,97.4600,326.7656,101.4240,258.7595,0,U,42992,999,48550,.16757E-3,.5447E-4,0
CARTOSAT-2F,2018-004A,2026-07-08T03:40:55.979616,15.19236725,.0002196,97.4778,248.5823,149.4089,210.7273,0,U,43111,999,47051,.15259E-3,.3146E-4,0
GAOFEN-1 02,2018-031A,2026-07-08T04:07:42.872736,14.76465324,.0001846,98.0512,251.6395,324.2471,35.8614,0,U,43259,999,44579,.2419E-4,.117E-5,0
GAOFEN-1 03,2018-031B,2026-07-08T05:13:42.197664,14.76455760,.0002943,98.0507,251.5412,33.8057,326.3339,0,U,43260,999,44579,.75279E-4,.472E-5,0
GAOFEN-1 04,2018-031D,2026-07-08T04:38:46.353120,14.76464247,.0001559,98.0513,251.7106,57.9314,302.2047,0,U,43262,999,44578,.41201E-4,.235E-5,0
SENTINEL-3B,2018-039A,2026-07-08T03:48:16.891776,14.26740691,.0000981,98.6239,256.3890,119.8123,240.3155,0,U,43437,999,42711,.42657E-4,.6E-6,0
GAOFEN-5 01,2018-043A,2026-07-07T21:17:32.874720,14.60620041,.0002482,98.4583,160.9096,46.5491,313.5915,0,U,43461,999,43471,.61644E-4,.251E-5,0
GAOFEN-6,2018-048A,2026-07-08T05:10:39.476352,14.76378710,.0012107,98.0956,251.9011,101.3441,258.9129,0,U,43484,999,43649,.43451E-4,.25E-5,0
GAOFEN-11 01,2018-063A,2026-07-08T04:59:54.966048,15.55914249,.0002464,97.1278,256.0352,230.3578,129.7460,0,U,43585,999,44361,.1225E-3,.8393E-4,0
ICESAT-2,2018-070A,2026-07-08T04:10:29.032032,15.28265678,.0005925,92.0083,296.6504,80.0475,280.1442,0,U,43613,999,43566,.22768E-3,.6271E-4,0
HYSIS,2018-096A,2026-07-08T04:32:45.464640,14.78660103,.0001838,97.9826,255.7721,86.9544,273.1878,0,U,43719,999,41052,.35347E-4,.207E-5,0
KAZSTSAT,2018-099AB,2026-07-08T01:05:15.781056,14.99941579,.0007873,97.4313,220.0315,7.9957,352.1391,0,U,43783,999,41443,.1139E-3,.1359E-4,0
