SKYSAT-C4               
1 41771U 16058B   26189.00547611  .00010513  00000+0  19403-3 0  9999
2 41771  96.9169 209.9133 0003251 129.7385 230.4154 15.49266076548692
SKYSAT-C5               
1 41772U 16058C   26187.92650128  .00006073  00000+0  18242-3 0  9993
2 41772  97.0459 227.6879 0002457 176.3166 183.8097 15.34766054546772
SKYSAT-C2               
1 41773U 16058D   26187.59401765  .00010488  00000+0  24350-3 0  9990
2 41773  97.0163 208.9626 0002559  24.3070 335.8299 15.42537650548048
SKYSAT-C3               
1 41774U 16058E   26189.02033362  .00014762  00000+0  23412-3 0  9992
2 41774  96.9002 219.0760 0002102 134.7877 225.3549 15.53466400549347
ALSAT-1B                
1 41785U 16059C   26189.17279791 -.00000127  00000+0 -12566-4 0  9990
2 41785  97.7755 197.0309 0009805 150.3177 209.8590 14.72289691523666
PATHFINDER 1            
1 41787U 16059E   26188.93032082  .00000438  00000+0  84568-4 0  9999
2 41787  97.8171 187.2708 0029448 137.9459 222.4014 14.67687239522759
SCATSAT 1               
1 41790U 16059H   26189.17839711  .00001014  00000+0  13952-3 0  9993
2 41790  98.1180 253.1603 0054697 179.0119 181.1210 14.79575345104693
GOKTURK 1A              
1 41875U 16073A   26189.17725481  .00000469  00000+0  10117-3 0  9994
2 41875  98.1220  83.5200 0001419  77.8473 282.2888 14.62791111511893
RESOURCESAT-2A          
1 41877U 16074A   26189.18550973  .00000136  00000+0  82227-4 0  9993
2 41877  98.7516 262.5180 0002735  43.4941 316.6451 14.21607800497286
CARTOSAT-2D             
1 41948U 17008A   26189.16902903  .00004026  00000+0  19415-3 0  9992
2 41948  97.4095 248.0818 0005320 160.0263 200.1181 15.19251785520768
SENTINEL-2B             
1 42063U 17013A   26189.18651390 -.00000040  00000+0  11903-5 0  9999
2 42063  98.5681 263.6644 0001180  90.3513 269.7805 14.30813689487645
CARTOSAT-2E             
1 42767U 17036C   26189.18666280  .00003066  00000+0  14883-3 0  9997
2 42767  97.4260 248.6419 0002605 218.8249 141.2799 15.19219263501331
FORMOSAT-5              
1 42920U 17049A   26189.15561391  .00000085  00000+0  32491-4 0  9990
2 42920  98.2248 263.9991 0011811  25.0173 335.1592 14.50906476469718
SENTINEL-5P             
1 42969U 17064A   26188.85425470  .00000028  00000+0  34221-4 0  9993
2 42969  98.7928 130.8389 0001094  92.1863 267.9439 14.19522447452493
SKYSAT-C11              
1 42987U 17068A   26188.92540299  .00016726  00000+0  21616-3 0  9997
2 42987  97.4373 338.6784 0000731 160.9387 199.1897 15.59025050486474
SKYSAT-C10              
1 42988U 17068B   26188.95969869  .00006061  00000+0  18084-3 0  9995
2 42988  97.4526 326.0170 0001312 109.0026 251.1360 15.35015183485546
SKYSAT-C9               
1 42989U 17068C   26188.94233082  .00007801  00000+0  18432-3 0  9996
2 42989  97.4445 327.1347 0009162  67.9788 292.2432 15.42088154485950
SKYSAT-C8               
1 42990U 17068D   26188.89915907  .00006004  00000+0  16611-3 0  9996
2 42990  97.4546 325.8355 0001195  97.2782 262.8598 15.37391898485497
SKYSAT-C7               
1 42991U 17068E   26188.95850635  .00005995  00000+0  16604-3 0  9990
2 42991  97.4554 326.8865 0006370  44.7553 315.4204 15.37344161485565
SKYSAT-C6               
1 42992U 17068F   26188.95297059  .00005447  00000+0  16757-3 0  9997
2 42992  97.4600 326.7656 0005270 101.4240 258.7595 15.34083204485508
CARTOSAT-2F             
1 43111U 18004A   26189.15342569  .00003146  00000+0  15259-3 0  9992
2 43111  97.4778 248.5823 0002196 149.4089 210.7273 15.19236725470519
GAOFEN-1 02             
1 43259U 18031A   26189.17202399  .00000117  00000+0  24190-4 0  9993
2 43259  98.0512 251.6395 0001846 324.2471  35.8614 14.76465324445791
GAOFEN-1 03             
1 43260U 18031B   26189.21784951  .00000472  00000+0  75279-4 0  9997
2 43260  98.0507 251.5412 0002943  33.8057 326.3339 14.76455760445793
GAOFEN-1 04             
1 43262U 18031D   26189.19359205  .00000235  00000+0  41201-4 0  9991
2 43262  98.0513 251.7106 0001559  57.9314 302.2047 14.76464247445787
SENTINEL-3B             
1 43437U 18039A   26189.15852884  .00000060  00000+0  42657-4 0  9992
2 43437  98.6239 256.3890 0000981 119.8123 240.3155 14.26740691427111
GAOFEN-5 01             
1 43461U 18043A   26188.88718605  .00000251  00000+0  61644-4 0  9994
2 43461  98.4583 160.9096 0002482  46.5491 313.5915 14.60620041434713
GAOFEN-6                
1 43484U 18048A   26189.21573468  .00000250  00000+0  43451-4 0  9993
2 43484  98.0956 251.9011 0012107 101.3441 258.9129 14.76378710436492
GAOFEN-11 01            
1 43585U 18063A   26189.20827507  .00008393  00000+0  12250-3 0  9995
2 43585  97.1278 256.0352 0002464 230.3578 129.7460 15.55914249443610
ICESAT-2                
1 43613U 18070A   26189.17394713  .00006271  00000+0  22768-3 0  9997
2 43613  92.0083 296.6504 0005925  80.0475 280.1442 15.28265678435663
HYSIS                   
1 43719U 18096A   26189.18941510  .00000207  00000+0  35347-4 0  9997
2 43719  97.9826 255.7721 0001838  86.9544 273.1878 14.78660103410526
KAZSTSAT                
1 43783U 18099AB  26189.04532154  .00001359  00000+0  11390-3 0  9996
2 43783  97.4313 220.0315 0007873   7.9957 352.1391 14.99941579414437
